NORAD_CAT_ID,OBJECT_NAME,OBJECT_TYPE,EPOCH,MEAN_MOTION,ECCENTRICITY,INCLINATION,RA_OF_ASC_NODE,ARG_OF_PERICENTER,MEAN_ANOMALY,BSTAR,MEAN_MOTION_DOT,MEAN_MOTION_DDOT,TLE_LINE0,TLE_LINE1,TLE_LINE2,SEMIMAJOR_AXIS,PERIOD,APOGEE,PERIGEE,DECAYED
50181.0,STARLINK-3285,PAYLOAD,2024-02-19 15:04:04,15.08844404,0.0001165,53.2183,11.8012,67.0036,293.1079,3.8854e-05,3.31e-06,0.0,0 STARLINK-3285,1 50181U 21125AB  24050.62783012  .00000331  00000-0  38854-4 0  9995,2 50181  53.2183  11.8012 0001165  67.0036 293.1079 15.08844404123035,6917.867,95.437,540.538,538.926,0.0
50181.0,STARLINK-3285,PAYLOAD,2024-02-20 03:47:10,15.08836498,0.0001774,53.2211,9.421,79.1633,280.9559,-0.00015815,-2.804e-05,0.0,0 STARLINK-3285,1 50181U 21125AB  24051.15776464 -.00002804  00000-0 -15815-3 0  9997,2 50181  53.2211   9.4210 0001774  79.1633 280.9559 15.08836498123113,6917.891,95.438,540.983,538.529,0.0
50181.0,STARLINK-3285,PAYLOAD,2024-02-20 06:57:56,15.08838247,0.0001634,53.2206,8.8249,82.7424,277.3754,-0.00014498,-2.595e-05,0.0,0 STARLINK-3285,1 50181U 21125AB  24051.29024282 -.00002595  00000-0 -14498-3 0  9999,2 50181  53.2206   8.8249 0001634  82.7424 277.3754 15.08838247123622,6917.886,95.438,540.881,538.62,0.0
50181.0,STARLINK-3285,PAYLOAD,2024-02-21 03:37:56,15.08849162,0.0001516,53.2205,4.9604,93.592,266.5246,9.9519e-05,1.297e-05,0.0,0 STARLINK-3285,1 50181U 21125AB  24052.15134991  .00001297  00000-0  99519-4 0  9998,2 50181  53.2205   4.9604 0001516  93.5920 266.5246 15.08849162123267,6917.852,95.437,540.766,538.669,0.0
50181.0,STARLINK-3285,PAYLOAD,2024-02-21 13:10:15,15.08842113,0.0001599,53.2201,3.1752,90.8343,269.2832,3.7427e-05,3.08e-06,0.0,0 STARLINK-3285,1 50181U 21125AB  24052.54879553  .00000308  00000-0  37427-4 0  9993,2 50181  53.2201   3.1752 0001599  90.8343 269.2832 15.08842113123819,6917.874,95.437,540.845,538.633,0.0
50181.0,STARLINK-3285,PAYLOAD,2024-02-22 03:28:45,15.08824158,0.0001317,53.2209,0.5058,88.7574,271.3569,0.00015222,2.135e-05,0.0,0 STARLINK-3285,1 50181U 21125AB  24053.14496870  .00002135  00000-0  15222-3 0  9995,2 50181  53.2209   0.5058 0001317  88.7574 271.3569 15.08824158123413,6917.929,95.439,540.705,538.883,0.0
50181.0,STARLINK-3285,PAYLOAD,2024-02-22 13:01:04,15.08833079,0.0001453,53.2209,358.7217,99.5853,260.5303,5.8844e-05,6.49e-06,0.0,0 STARLINK-3285,1 50181U 21125AB  24053.54240757  .00000649  00000-0  58844-4 0  9996,2 50181  53.2209 358.7217 0001453  99.5853 260.5303 15.08833079123967,6917.902,95.438,540.772,538.761,0.0
50181.0,STARLINK-3285,PAYLOAD,2024-02-23 01:44:08,15.08847032,0.0001528,53.2203,356.343,116.4153,243.6996,-1.9746e-05,-6.02e-06,0.0,0 STARLINK-3285,1 50181U 21125AB  24054.07232040 -.00000602  00000-0 -19746-4 0  9990,2 50181  53.2203 356.3430 0001528 116.4153 243.6996 15.08847032123556,6917.859,95.437,540.781,538.667,0.0
50181.0,STARLINK-3285,PAYLOAD,2024-02-23 12:51:50,15.08848076,0.0001256,53.2194,354.2558,95.0823,265.0313,-9.2278e-07,-3.03e-06,0.0,0 STARLINK-3285,1 50181U 21125AB  24054.53599812 -.00000303  00000-0 -92278-6 0  9995,2 50181  53.2194 354.2558 0001256  95.0823 265.0313 15.08848076124110,6917.856,95.437,540.59,538.852,0.0
50181.0,STARLINK-3285,PAYLOAD,2024-02-24 03:10:18,15.08844304,0.0001205,53.22,351.5777,88.0242,272.0888,0.0001202,1.626e-05,0.0,0 STARLINK-3285,1 50181U 21125AB  24055.13215826  .00001626  00000-0  12020-3 0  9993,2 50181  53.2200 351.5777 0001205  88.0242 272.0888 15.08844304123712,6917.867,95.437,540.566,538.899,0.0
50181.0,STARLINK-3285,PAYLOAD,2024-02-24 04:45:41,15.08851337,0.0001193,53.2195,351.2835,93.6114,266.5014,0.00017447,2.491e-05,0.0,0 STARLINK-3285,1 50181U 21125AB  24055.19839358  .00002491  00000-0  17447-3 0  9990,2 50181  53.2195 351.2835 0001193  93.6114 266.5014 15.08851337123727,6917.846,95.437,540.536,538.885,0.0
50181.0,STARLINK-3285,PAYLOAD,2024-02-24 12:42:37,15.08838225,0.000131,53.2206,349.7964,83.7529,276.3612,5.58e-05,6e-06,0.0,0 STARLINK-3285,1 50181U 21125AB  24055.52960464  .00000600  00000-0  55800-4 0  9996,2 50181  53.2206 349.7964 0001310  83.7529 276.3612 15.08838225124260,6917.886,95.438,540.657,538.845,0.0
50181.0,STARLINK-3285,PAYLOAD,2024-02-25 12:33:24,15.08841841,0.0001424,53.2209,345.3338,85.3839,274.7316,3.8358e-05,3.23e-06,0.0,0 STARLINK-3285,1 50181U 21125AB  24056.52320393  .00000323  00000-0  38358-4 0  9999,2 50181  53.2209 345.3338 0001424  85.3839 274.7316 15.08841841124416,6917.875,95.437,540.725,538.755,0.0
50181.0,STARLINK-3285,PAYLOAD,2024-02-25 18:54:57,15.08841225,0.0001397,53.2197,344.1456,86.7612,273.354,3.7153e-05,3.03e-06,0.0,0 STARLINK-3285,1 50181U 21125AB  24056.78816447  .00000303  00000-0  37153-4 0  9997,2 50181  53.2197 344.1456 0001397  86.7612 273.3540 15.08841225123962,6917.877,95.437,540.708,538.775,0.0
50181.0,STARLINK-3285,PAYLOAD,2024-02-26 01:16:29,15.0884839,0.0001109,53.2174,342.9569,88.0153,272.0966,0.00011761,1.585e-05,0.0,0 STARLINK-3285,1 50181U 21125AB  24057.05311637  .00001585  00000-0  11761-3 0  9998,2 50181  53.2174 342.9569 0001109  88.0153 272.0966 15.08848390124008,6917.855,95.437,540.487,538.953,0.0
50181.0,STARLINK-3285,PAYLOAD,2024-02-26 18:45:44,15.08838489,0.0001464,53.2173,339.6882,86.6364,273.4796,8.4466e-05,1.057e-05,0.0,0 STARLINK-3285,1 50181U 21125AB  24057.78176395  .00001057  00000-0  84466-4 0  9995,2 50181  53.2173 339.6882 0001464  86.6364 273.4796 15.08838489124116,6917.885,95.438,540.763,538.737,0.0
50181.0,STARLINK-3285,PAYLOAD,2024-02-26 21:56:30,15.08837308,0.0001228,53.2179,339.0911,92.5623,267.5509,7.013e-05,8.28e-06,0.0,0 STARLINK-3285,1 50181U 21125AB  24057.91424518  .00000828  00000-0  70130-4 0  9991,2 50181  53.2179 339.0911 0001228  92.5623 267.5509 15.08837308124622,6917.889,95.438,540.603,538.904,0.0
50181.0,STARLINK-3285,PAYLOAD,2024-02-27 04:18:02,15.08841889,0.0001389,53.2186,337.9008,103.4765,256.6382,9.1955e-05,1.176e-05,0.0,0 STARLINK-3285,1 50181U 21125AB  24058.17920136  .00001176  00000-0  91955-4 0  9992,2 50181  53.2186 337.9008 0001389 103.4765 256.6382 15.08841889124662,6917.875,95.437,540.701,538.779,0.0
50181.0,STARLINK-3285,PAYLOAD,2024-02-27 18:36:32,15.08826991,0.0001286,53.2187,335.2233,118.3724,241.7398,5.8213e-05,6.38e-06,0.0,0 STARLINK-3285,1 50181U 21125AB  24058.77537214  .00000638  00000-0  58213-4 0  9991,2 50181  53.2187 335.2233 0001286 118.3724 241.7398 15.08826991124265,6917.92,95.438,540.675,538.896,0.0
50181.0,STARLINK-3285,PAYLOAD,2024-02-27 21:47:18,15.08829556,0.000127,53.2193,334.6315,103.5327,256.5806,3.9798e-05,3.45e-06,0.0,0 STARLINK-3285,1 50181U 21125AB  24058.90785260  .00000345  00000-0  39798-4 0  9994,2 50181  53.2193 334.6315 0001270 103.5327 256.5806 15.08829556124778,6917.912,95.438,540.656,538.899,0.0
50181.0,STARLINK-3285,PAYLOAD,2024-02-28 04:08:50,15.08838527,0.0001293,53.2179,333.4402,88.8082,271.3058,-7.2183e-05,-1.436e-05,0.0,0 STARLINK-3285,1 50181U 21125AB  24059.17281098 -.00001436  00000-0 -72183-4 0  9993,2 50181  53.2179 333.4402 0001293  88.8082 271.3058 15.08838527124327,6917.885,95.438,540.644,538.855,0.0
50181.0,STARLINK-3285,PAYLOAD,2024-02-28 21:38:04,15.08841027,0.0001308,53.2185,330.1695,101.5627,258.5512,0.00010001,1.304e-05,0.0,0 STARLINK-3285,1 50181U 21125AB  24059.90144522  .00001304  00000-0  10001-3 0  9996,2 50181  53.2185 330.1695 0001308 101.5627 258.5512 15.08841027124924,6917.877,95.437,540.647,538.837,0.0
50181.0,STARLINK-3285,PAYLOAD,2024-02-29 00:48:50,15.0884663,0.0001394,53.2185,329.5746,103.8103,256.3044,0.00014426,2.009e-05,0.0,0 STARLINK-3285,1 50181U 21125AB  24060.03392060  .00002009  00000-0  14426-3 0  9992,2 50181  53.2185 329.5746 0001394 103.8103 256.3044 15.08846630124451,6917.86,95.437,540.689,538.761,0.0
50181.0,STARLINK-3285,PAYLOAD,2024-02-29 10:21:09,15.08845425,0.0001466,53.2193,327.7918,92.8238,267.2922,7.058e-05,8.36e-06,0.0,0 STARLINK-3285,1 50181U 21125AB  24060.43136299  .00000836  00000-0  70580-4 0  9996,2 50181  53.2193 327.7918 0001466  92.8238 267.2922 15.08845425125006,6917.864,95.437,540.743,538.715,0.0
50181.0,STARLINK-3285,PAYLOAD,2024-02-29 21:28:52,15.08830912,0.0001387,53.2205,325.7125,91.4736,268.6415,6.6341e-05,7.68e-06,0.0,0 STARLINK-3285,1 50181U 21125AB  24060.89505560  .00000768  00000-0  66341-4 0  9991,2 50181  53.2205 325.7125 0001387  91.4736 268.6415 15.08830912124587,6917.908,95.438,540.733,538.814,0.0
50181.0,STARLINK-3285,PAYLOAD,2024-03-01 10:11:58,15.08800607,0.0001377,53.2198,323.3326,99.1684,260.9464,0.0005678,8.75e-05,0.0,0 STARLINK-3285,1 50181U 21125AB  24061.42498750  .00008750  00000-0  56780-3 0  9997,2 50181  53.2198 323.3326 0001377  99.1684 260.9464 15.08800607125152,6918.001,95.44,540.818,538.913,0.0
50181.0,STARLINK-3285,PAYLOAD,2024-03-01 21:19:39,15.08847871,0.0001393,53.2186,321.2474,88.3362,271.7789,-1.2772e-05,-4.91e-06,0.0,0 STARLINK-3285,1 50181U 21125AB  24061.88864799 -.00000491  00000-0 -12772-4 0  9997,2 50181  53.2186 321.2474 0001393  88.3362 271.7789 15.08847871124738,6917.856,95.437,540.685,538.758,0.0
50181.0,STARLINK-3285,PAYLOAD,2024-03-01 22:55:02,15.08849519,0.0001483,53.2194,320.952,91.9931,268.1231,7.8073e-06,-1.64e-06,0.0,0 STARLINK-3285,1 50181U 21125AB  24061.95488648 -.00000164  00000-0  78073-5 0  9993,2 50181  53.2194 320.9520 0001483  91.9931 268.1231 15.08849519125236,6917.851,95.437,540.742,538.69,0.0
50181.0,STARLINK-3285,PAYLOAD,2024-03-02 21:10:27,15.0880075,0.0001305,53.2189,316.787,75.3345,284.7791,0.00067378,0.0001044,0.0,0 STARLINK-3285,1 50181U 21125AB  24062.88226495  .00010440  00000-0  67378-3 0  9997,2 50181  53.2189 316.7870 0001305  75.3345 284.7791 15.08800750125373,6918.0,95.44,540.768,538.963,0.0
50181.0,STARLINK-3285,PAYLOAD,2024-03-03 01:56:35,15.08842622,0.0001426,53.2186,315.8945,77.2996,282.8156,9.743e-05,1.263e-05,0.0,0 STARLINK-3285,1 50181U 21125AB  24063.08096847  .00001263  00000-0  97430-4 0  9992,2 50181  53.2186 315.8945 0001426  77.2996 282.8156 15.08842622124917,6917.872,95.437,540.724,538.751,0.0
